[
    {
        "Altitude(m)": 707219.7989230928,
        "Argument of Periapsis(deg)": 0.007973084830638947,
        "Eccentricity": 0.0,
        "Inclination(deg)": 45.0,
        "Latitude(deg)": -17.160093791739357,
        "Longitude(deg)": -57.64622900295283,
        "Mean Anomaly(deg)": -155.56314834676346,
        "RAAN(deg)": 204.99247364097926,
        "Satellite Name": "Constellation 1 914",
        "Satellite Number": 914,
        "Semi-Major Axis(m)": 7083131.272910544,
        "Time(s)": 133
    },
    {
        "Altitude(m)": 707232.2422853446,
        "Argument of Periapsis(deg)": 0.008033032836884352,
        "Eccentricity": 0.0,
        "Inclination(deg)": 45.0,
        "Latitude(deg)": -17.2011448463424,
        "Longitude(deg)": -57.60345166468358,
        "Mean Anomaly(deg)": -155.5024472065135,
        "RAAN(deg)": 204.9924170518137,
        "Satellite Name": "Constellation 1 914",
        "Satellite Number": 914,
        "Semi-Major Axis(m)": 7083131.272910544,
        "Time(s)": 134
    },
    {
        "Altitude(m)": 707244.6965953866,
        "Argument of Periapsis(deg)": 0.008092980843129758,
        "Eccentricity": 0.0,
        "Inclination(deg)": 45.0,
        "Latitude(deg)": -17.242184732170827,
        "Longitude(deg)": -57.5606537747812,
        "Mean Anomaly(deg)": -155.44174606626362,
        "RAAN(deg)": 204.99236046264812,
        "Satellite Name": "Constellation 1 914",
        "Satellite Number": 914,
        "Semi-Major Axis(m)": 7083131.272910544,
        "Time(s)": 135
    },
    {
        "Altitude(m)": 707257.1618142007,
        "Argument of Periapsis(deg)": 0.008152928849375162,
        "Eccentricity": 0.0,
        "Inclination(deg)": 45.0,
        "Latitude(deg)": -17.283213416588957,
        "Longitude(deg)": -57.517835277433555,
        "Mean Anomaly(deg)": -155.38104492601371,
        "RAAN(deg)": 204.99230387348257,
        "Satellite Name": "Constellation 1 914",
        "Satellite Number": 914,
        "Semi-Major Axis(m)": 7083131.272910544,
        "Time(s)": 136
    },
    {
        "Altitude(m)": 707269.6379027042,
        "Argument of Periapsis(deg)": 0.008212876855620568,
        "Eccentricity": 0.0,
        "Inclination(deg)": 45.0,
        "Latitude(deg)": -17.32423086692091,
        "Longitude(deg)": -57.47499611679871,
        "Mean Anomaly(deg)": -155.32034378576384,
        "RAAN(deg)": 204.992247284317,
        "Satellite Name": "Constellation 1 914",
        "Satellite Number": 914,
        "Semi-Major Axis(m)": 7083131.272910544,
        "Time(s)": 137
    },
    {
        "Altitude(m)": 707282.1248217531,
        "Argument of Periapsis(deg)": 0.008272824861865974,
        "Eccentricity": 0.0,
        "Inclination(deg)": 45.0,
        "Latitude(deg)": -17.365237050450826,
        "Longitude(deg)": -57.43213623700444,
        "Mean Anomaly(deg)": -155.25964264551396,
        "RAAN(deg)": 204.9921906951514,
        "Satellite Name": "Constellation 1 914",
        "Satellite Number": 914,
        "Semi-Major Axis(m)": 7083131.272910544,
        "Time(s)": 138
    },
    {
        "Altitude(m)": 707294.6225321647,
        "Argument of Periapsis(deg)": 0.00833277286811138,
        "Eccentricity": 0.0,
        "Inclination(deg)": 45.0,
        "Latitude(deg)": -17.40623193442254,
        "Longitude(deg)": -57.38925558214828,
        "Mean Anomaly(deg)": -155.19894150526403,
        "RAAN(deg)": 204.99213410598585,
        "Satellite Name": "Constellation 1 914",
        "Satellite Number": 914,
        "Semi-Major Axis(m)": 7083131.272910544,
        "Time(s)": 139
    },
    {
        "Altitude(m)": 707307.1309946829,
        "Argument of Periapsis(deg)": 0.008392720874356788,
        "Eccentricity": 0.0,
        "Inclination(deg)": 45.0,
        "Latitude(deg)": -17.4472154860394,
        "Longitude(deg)": -57.346354096297915,
        "Mean Anomaly(deg)": -155.13824036501413,
        "RAAN(deg)": 204.99207751682027,
        "Satellite Name": "Constellation 1 914",
        "Satellite Number": 914,
        "Semi-Major Axis(m)": 7083131.272910544,
        "Time(s)": 140
    },
    {
        "Altitude(m)": 707319.6501700018,
        "Argument of Periapsis(deg)": 0.008452668880602192,
        "Eccentricity": 0.0,
        "Inclination(deg)": 45.0,
        "Latitude(deg)": -17.488187672464605,
        "Longitude(deg)": -57.3034318915877,
        "Mean Anomaly(deg)": -155.07753922476422,
        "RAAN(deg)": 204.99202092765472,
        "Satellite Name": "Constellation 1 914",
        "Satellite Number": 914,
        "Semi-Major Axis(m)": 7083131.272910544,
        "Time(s)": 141
    },
    {
        "Altitude(m)": 707332.1800187543,
        "Argument of Periapsis(deg)": 0.008512616886847598,
        "Eccentricity": 0.0,
        "Inclination(deg)": 45.0,
        "Latitude(deg)": -17.529148460820196,
        "Longitude(deg)": -57.26048857583077,
        "Mean Anomaly(deg)": -155.01683808451432,
        "RAAN(deg)": 204.99196433848914,
        "Satellite Name": "Constellation 1 914",
        "Satellite Number": 914,
        "Semi-Major Axis(m)": 7083131.272910544,
        "Time(s)": 142
    },
    {
        "Altitude(m)": 707344.7205015264,
        "Argument of Periapsis(deg)": 0.008572564893093004,
        "Eccentricity": 0.0,
        "Inclination(deg)": 45.0,
        "Latitude(deg)": -17.570097818188,
        "Longitude(deg)": -57.21752426110147,
        "Mean Anomaly(deg)": -154.95613694426447,
        "RAAN(deg)": 204.99190774932356,
        "Satellite Name": "Constellation 1 914",
        "Satellite Number": 914,
        "Semi-Major Axis(m)": 7083131.272910544,
        "Time(s)": 143
    },
    {
        "Altitude(m)": 707357.271578847,
        "Argument of Periapsis(deg)": 0.008632512899338408,
        "Eccentricity": 0.0,
        "Inclination(deg)": 45.0,
        "Latitude(deg)": -17.611035711608835,
        "Longitude(deg)": -57.174538891346934,
        "Mean Anomaly(deg)": -154.89543580401457,
        "RAAN(deg)": 204.991851160158,
        "Satellite Name": "Constellation 1 914",
        "Satellite Number": 914,
        "Semi-Major Axis(m)": 7083131.272910544,
        "Time(s)": 144
    },
    {
        "Altitude(m)": 707369.8332111766,
        "Argument of Periapsis(deg)": 0.008692460905583814,
        "Eccentricity": 0.0,
        "Inclination(deg)": 45.0,
        "Latitude(deg)": -17.65196210808269,
        "Longitude(deg)": -57.13153241048415,
        "Mean Anomaly(deg)": -154.83473466376464,
        "RAAN(deg)": 204.99179457099243,
        "Satellite Name": "Constellation 1 914",
        "Satellite Number": 914,
        "Semi-Major Axis(m)": 7083131.272910544,
        "Time(s)": 145
    },
    {
        "Altitude(m)": 707382.4053589351,
        "Argument of Periapsis(deg)": 0.00875240891182922,
        "Eccentricity": 0.0,
        "Inclination(deg)": 45.0,
        "Latitude(deg)": -17.692876974568257,
        "Longitude(deg)": -57.08850476240039,
        "Mean Anomaly(deg)": -154.7740335235148,
        "RAAN(deg)": 204.99173798182687,
        "Satellite Name": "Constellation 1 914",
        "Satellite Number": 914,
        "Semi-Major Axis(m)": 7083131.272910544,
        "Time(s)": 146
    },
    {
        "Altitude(m)": 707394.9879824793,
        "Argument of Periapsis(deg)": 0.008812356918074627,
        "Eccentricity": 0.0,
        "Inclination(deg)": 45.0,
        "Latitude(deg)": -17.733780277983477,
        "Longitude(deg)": -57.045455890952404,
        "Mean Anomaly(deg)": -154.71333238326483,
        "RAAN(deg)": 204.99168139266126,
        "Satellite Name": "Constellation 1 914",
        "Satellite Number": 914,
        "Semi-Major Axis(m)": 7083131.272910544,
        "Time(s)": 147
    },
    {
        "Altitude(m)": 707407.5810421142,
        "Argument of Periapsis(deg)": 0.008872304924320031,
        "Eccentricity": 0.0,
        "Inclination(deg)": 45.0,
        "Latitude(deg)": -17.77467198520473,
        "Longitude(deg)": -57.002385908064625,
        "Mean Anomaly(deg)": -154.65263124301498,
        "RAAN(deg)": 204.9916248034957,
        "Satellite Name": "Constellation 1 914",
        "Satellite Number": 914,
        "Semi-Major Axis(m)": 7083131.272910544,
        "Time(s)": 148
    },
    {
        "Altitude(m)": 707420.1844980906,
        "Argument of Periapsis(deg)": 0.008932252930565437,
        "Eccentricity": 0.0,
        "Inclination(deg)": 45.0,
        "Latitude(deg)": -17.815552063066832,
        "Longitude(deg)": -56.9592944213397,
        "Mean Anomaly(deg)": -154.59193010276505,
        "RAAN(deg)": 204.99156821433013,
        "Satellite Name": "Constellation 1 914",
        "Satellite Number": 914,
        "Semi-Major Axis(m)": 7083131.272910544,
        "Time(s)": 149
    },
    {
        "Altitude(m)": 707432.7983105999,
        "Argument of Periapsis(deg)": 0.008992200936810843,
        "Eccentricity": 0.0,
        "Inclination(deg)": 45.0,
        "Latitude(deg)": -17.856420478363464,
        "Longitude(deg)": -56.9161815426419,
        "Mean Anomaly(deg)": -154.53122896251517,
        "RAAN(deg)": 204.99151162516458,
        "Satellite Name": "Constellation 1 914",
        "Satellite Number": 914,
        "Semi-Major Axis(m)": 7083131.272910544,
        "Time(s)": 150
    },
    {
        "Altitude(m)": 707445.4224397789,
        "Argument of Periapsis(deg)": 0.009052148943056249,
        "Eccentricity": 0.0,
        "Inclination(deg)": 45.0,
        "Latitude(deg)": -17.89727719784656,
        "Longitude(deg)": -56.8730472157084,
        "Mean Anomaly(deg)": -154.47052782226527,
        "RAAN(deg)": 204.99145503599902,
        "Satellite Name": "Constellation 1 914",
        "Satellite Number": 914,
        "Semi-Major Axis(m)": 7083131.272910544,
        "Time(s)": 151
    }
]